*******************************************************************************
 Revised: Sep 29, 2017              Aoede / (Jupiter)                      541

 Recently discovered irregular Jovian satellite.
*******************************************************************************
 
 
*******************************************************************************
Ephemeris / WWW_USER Sun Nov 12 11:27:34 2017 Pasadena, USA      / Horizons    
*******************************************************************************
Target body name: Aoede (541)                     {source: jup341}
Center body name: Solar System Barycenter (0)     {source: DE431mx}
Center-site name: BODY CENTER
*******************************************************************************
Start time      : A.D. 2017-Jul-10 00:00:00.0000 TDB
Stop  time      : A.D. 2020-Aug-13 00:00:00.0000 TDB
Step-size       : 1440 minutes
*******************************************************************************
Center geodetic : 0.00000000,0.00000000,0.0000000 {E-lon(deg),Lat(deg),Alt(km)}
Center cylindric: 0.00000000,0.00000000,0.0000000 {E-lon(deg),Dxy(km),Dz(km)}
Center radii    : (undefined)                                                  
Output units    : KM-S                                                         
Output type     : GEOMETRIC cartesian states
Output format   : 3 (position, velocity, LT, range, range-rate)
Reference frame : ICRF/J2000.0                                                 
Coordinate systm: Ecliptic and Mean Equinox of Reference Epoch                 
*******************************************************************************
            JDTDB,            Calendar Date (TDB),                      X,                      Y,                      Z,                     VX,                     VY,                     VZ,                     LT,                     RG,                     RR,
**************************************************************************************************************************************************************************************************************************************************************************
$$SOE
2458118.500000000, A.D. 2017-Dec-31 00:00:00.0000, -6.162012084597248E+08, -5.055993133812431E+08,  4.659274318354964E+06,  8.602083382351060E+00, -1.171573566256289E+01, -5.019605708267090E-01,  2.658814072245607E+03,  7.970924060835001E+08,  7.784730534873732E-01,
2458119.500000000, A.D. 2018-Jan-01 00:00:00.0000, -6.154580498965641E+08, -5.066109469927868E+08,  4.616257380858928E+06,  8.600678979267697E+00, -1.170168950868567E+01, -4.938131488055504E-01,  2.659040602086034E+03,  7.971603180211720E+08,  7.935258543998374E-01,
2458120.500000000, A.D. 2018-Jan-02 00:00:00.0000, -6.147150080692999E+08, -5.076213619877332E+08,  4.573941467525721E+06,  8.599380923422276E+00, -1.168752735972275E+01, -4.857330429325755E-01,  2.659271438540602E+03,  7.972295210492830E+08,  8.083598403674690E-01,
2458121.500000000, A.D. 2018-Jan-03 00:00:00.0000, -6.139720738517444E+08, -5.086305484508365E+08,  4.532320792809129E+06,  8.598187771812263E+00, -1.167325167658038E+01, -4.777195415693196E-01,  2.659506518921923E+03,  7.972999963746265E+08,  8.229776114507183E-01,
2458122.500000000, A.D. 2018-Jan-04 00:00:00.0000, -6.132292382424603E+08, -5.096384966762801E+08,  4.491389633137107E+06,  8.597098092555315E+00, -1.165886483735282E+01, -4.697719334847434E-01,  2.659745781287078E+03,  7.973717254271834E+08,  8.373817181908788E-01,
2458123.500000000, A.D. 2018-Jan-05 00:00:00.0000, -6.124864923607812E+08, -5.106451971594902E+08,  4.451142323884040E+06,  8.596110491608409E+00, -1.164436914883040E+01, -4.618895385636081E-01,  2.659989164413259E+03,  7.974446898528169E+08,  8.515746476444881E-01,
2458124.500000000, A.D. 2018-Jan-06 00:00:00.0000, -6.117438274494669E+08, -5.116506405959304E+08,  4.411573261931777E+06,  8.595223556083655E+00, -1.162976687840663E+01, -4.540716535666025E-01,  2.660236607805270E+03,  7.975188715155238E+08,  8.655588872248297E-01,
2458125.500000000, A.D. 2018-Jan-07 00:00:00.0000, -6.110012348705503E+08, -5.126548178710448E+08,  4.372676903084159E+06,  8.594435907082770E+00, -1.161506024043369E+01, -4.463176068277983E-01,  2.660488051666443E+03,  7.975942524887139E+08,  8.793368746052809E-01,
2458126.500000000, A.D. 2018-Jan-08 00:00:00.0000, -6.102587061050955E+08, -5.136577200609216E+08,  4.334447760897726E+06,  8.593746163986657E+00, -1.160025136290100E+01, -4.386267082067530E-01,  2.660743436902397E+03,  7.976708150563372E+08,  8.929110036044636E-01,
2458127.500000000, A.D. 2018-Jan-09 00:00:00.0000, -6.095162327527697E+08, -5.146593384222569E+08,  4.296880408440709E+06,  8.593152970648498E+00, -1.158534233426959E+01, -4.309982903672438E-01,  2.661002705101330E+03,  7.977485417069768E+08,  9.062836333810814E-01,
2458128.500000000, A.D. 2018-Jan-10 00:00:00.0000, -6.087738065301481E+08, -5.156596643909405E+08,  4.259969476136684E+06,  8.592654972702324E+00, -1.157033520082602E+01, -4.234316842983912E-01,  2.661265798529350E+03,  7.978274151324465E+08,  9.194571039456061E-01,
2458129.500000000, A.D. 2018-Jan-11 00:00:00.0000, -6.080314192706738E+08, -5.166586895764293E+08,  4.223709652669847E+06,  8.592250823261594E+00, -1.155523193629296E+01, -4.159262151502423E-01,  2.661532660120922E+03,  7.979074182249297E+08,  9.324337117266936E-01,
2458130.500000000, A.D. 2018-Jan-12 00:00:00.0000, -6.072890629232360E+08, -5.176564057563767E+08,  4.188095684428304E+06,  8.591939196904299E+00, -1.154003446351862E+01, -4.084812230041956E-01,  2.661803233466183E+03,  7.979885340731750E+08,  9.452157123249285E-01,
2458131.500000000, A.D. 2018-Jan-13 00:00:00.0000, -6.065467295505645E+08, -5.186528048726429E+08,  4.153122374366105E+06,  8.591718782072382E+00, -1.152474465966471E+01, -4.010960561053860E-01,  2.662077462800634E+03,  7.980707459594054E+08,  9.578053293610493E-01,
2458132.500000000, A.D. 2018-Jan-14 00:00:00.0000, -6.058044113283069E+08, -5.196478790270206E+08,  4.118784581714034E+06,  8.591588277121888E+00, -1.150936434904109E+01, -3.937700638180974E-01,  2.662355292995870E+03,  7.981540373565418E+08,  9.702047524917647E-01,
2458133.500000000, A.D. 2018-Jan-15 00:00:00.0000, -6.050621005438807E+08, -5.206416204767090E+08,  4.085077221597403E+06,  8.591546397758995E+00, -1.149389530630356E+01, -3.865026047353863E-01,  2.662636669549079E+03,  7.982383919250522E+08,  9.824161334026533E-01,
2458134.500000000, A.D. 2018-Jan-16 00:00:00.0000, -6.043197895948143E+08, -5.216340216304640E+08,  4.051995263946265E+06,  8.591591878354365E+00, -1.147833926625746E+01, -3.792930509152566E-01,  2.662921538572597E+03,  7.983237935098208E+08,  9.944415908598366E-01,
2458135.500000000, A.D. 2018-Jan-17 00:00:00.0000, -6.035774709875495E+08, -5.226250750452647E+08,  4.019533732729971E+06,  8.591723461491437E+00, -1.146269792408561E+01, -3.721407770212801E-01,  2.663209846785676E+03,  7.984102261376814E+08,  1.006283218546772E+00,
2458136.500000000, A.D. 2018-Jan-18 00:00:00.0000, -6.028351373370125E+08, -5.236147734225209E+08,  3.987687706158459E+06,  8.591939894436035E+00, -1.144697292655082E+01, -3.650451533685324E-01,  2.663501541507113E+03,  7.984976740152062E+08,  1.017943081660345E+00,
2458137.500000000, A.D. 2018-Jan-19 00:00:00.0000, -6.020927813657012E+08, -5.246031096037399E+08,  3.956452316613525E+06,  8.592239942511517E+00, -1.143116587108989E+01, -3.580055587092739E-01,  2.663796570645369E+03,  7.985861215257457E+08,  1.029423205763849E+00,
2458138.500000000, A.D. 2018-Jan-20 00:00:00.0000, -6.013503959017609E+08, -5.255900765667139E+08,  3.925822749413371E+06,  8.592622392652091E+00, -1.141527831689118E+01, -3.510213872822261E-01,  2.664094882687166E+03,  7.986755532260072E+08,  1.040725581050278E+00,
2458139.500000000, A.D. 2018-Jan-21 00:00:00.0000, -6.006079738780562E+08, -5.265756674224230E+08,  3.895794242365003E+06,  8.593086030292264E+00, -1.139931178595776E+01, -3.440920255131887E-01,  2.664396426690080E+03,  7.987659538438359E+08,  1.051852180301816E+00,
2458140.500000000, A.D. 2018-Jan-22 00:00:00.0000, -5.998655083319488E+08, -5.275598754111869E+08,  3.866362086336970E+06,  8.593629664946462E+00, -1.138326774895633E+01, -3.372168719837854E-01,  2.664701152275195E+03,  7.988573082760131E+08,  1.062804929876039E+00,
2458141.500000000, A.D. 2018-Jan-23 00:00:00.0000, -5.991229924005874E+08, -5.285426938987557E+08,  3.837521621418029E+06,  8.594252140005899E+00, -1.136714764636872E+01, -3.303953542897924E-01,  2.665009009608214E+03,  7.989496015825924E+08,  1.073585716015614E+00,
2458142.500000000, A.D. 2018-Jan-24 00:00:00.0000, -5.983804193248541E+08, -5.295241163747427E+08,  3.809268240871787E+06,  8.594952279133167E+00, -1.135095288440094E+01, -3.236268741089248E-01,  2.665319949407475E+03,  7.990428189893024E+08,  1.084196422391088E+00,
2458143.500000000, A.D. 2018-Jan-25 00:00:00.0000, -5.976377824432391E+08, -5.305041364473500E+08,  3.781597386480838E+06,  8.595728933243748E+00, -1.133468484445211E+01, -3.169108583167848E-01,  2.665633922918351E+03,  7.991369458798751E+08,  1.094638900627030E+00,
2458144.500000000, A.D. 2018-Jan-26 00:00:00.0000, -5.968950751942148E+08, -5.314827478434425E+08,  3.754504550191879E+06,  8.596580968402241E+00, -1.131834484738268E+01, -3.102467311466910E-01,  2.665950881920782E+03,  7.992319677982990E+08,  1.104914955601592E+00,
2458145.500000000, A.D. 2018-Jan-27 00:00:00.0000, -5.961522911131454E+08, -5.324599444021919E+08,  3.727985273095518E+06,  8.597507265804534E+00, -1.130193419645598E+01, -3.036339314301379E-01,  2.666270778708792E+03,  7.993278704426827E+08,  1.115026373586234E+00,
2458146.500000000, A.D. 2018-Jan-28 00:00:00.0000, -5.954094238321348E+08, -5.334357200744145E+08,  3.702035144909322E+06,  8.598506708056693E+00, -1.128545416273873E+01, -2.970718934999734E-01,  2.666593566089901E+03,  7.994246396650770E+08,  1.124974922705696E+00,
